FLOCK 4G-25             
1 62646U 25009AP  26068.74572546  .00010373  00000+0  38902-3 0  9990
2 62646  97.4049 151.4141 0000828 316.3151  43.8023 15.27424196 63734
STARLINK-36423          
1 67448U 26008D   26068.43271001  .00025525  00000+0  93370-3 0  9998
2 67448  42.9989 206.6197 0001645 267.6574  92.4089 15.27585154  9538
